CAS-2T & KS-1Q          
1 41847U 16066G   20278.79012713  .00000064  00000-0  21007-4 0  9996
2 41847  98.6421 330.3409 0364441 263.0563  92.9048 14.38095334205138
NAYIF-1 (EO-88)         
1 42017U 17008BX  20278.87941620  .00001663  00000-0  65901-4 0  9997
2 42017  97.3496 344.8039 0004602 303.6691  56.4109 15.26801139202246
MAX VALIER SAT          
1 42778U 17036P   20278.69177135  .00001005  00000-0  45861-4 0  9997
2 42778  97.2935 329.2475 0012095   6.4605 353.6786 15.22805712182355
RADFXSAT (FOX-1B)       
1 43017U 17073E   20279.46480544  .00000803  00000-0  66873-4 0  9993
2 43017  97.7149 187.4225 0257890  52.0631 310.3586 14.79044269155420
FOX-1D (AO-92)          
1 43137U 18004AC  20279.18457558  .00001110  00000-0  48260-4 0  9991
2 43137  97.4364 349.5600 0010014  38.7964 321.3991 15.24329403151753
DIWATA-2B               
1 43678U 18084H   20279.48778602 -.00000048  00000-0  91522-6 0  9999
2 43678  97.8962  37.9630 0010117 165.3664 194.7859 14.91653591105429
ES'HAIL 2               
1 43700U 18090A   20279.18243978  .00000145  00000-0  00000+0 0  9993
2 43700   0.0219 112.1029 0002145 107.5846 246.1321  1.00274718  7058
FOX-1CLIFF (AO-95)      
1 43770U 18099N   20278.73873789  .00000652  00000-0  64710-4 0  9994
2 43770  97.6966 348.1656 0014501 186.3933 173.7105 14.95053559100240
ITASAT 1                
1 43786U 18099AE  20279.17960531 -.00000171  00000-0 -10246-4 0  9995
2 43786  97.6984 349.0964 0015195 178.9973 181.1281 14.95385091100337
JY1SAT (JO-97)          
1 43803U 18099AX  20278.77930778 -.00000097  00000-0 -35594-5 0  9991
2 43803  97.6944 348.4973 0015121 180.5442 179.5765 14.95574616100279
PSAT2 (NO-104)          
1 44354U 19036R   20278.65201335  .00009519  00000-0  13478-3 0  9993
2 44354  28.5304  22.4466 0356642  38.9683 323.6054 15.05495716 70284
BRICSAT2 (NO-103)       
1 44355U 19036S   20278.60493219  .00017996  00000-0  23995-3 0  9996
2 44355  28.5295   7.3649 0328469  63.4828 299.9058 15.12727190 70437
JAISAT-1                
1 44419U 19038F   20278.88787767  .00001006  00000-0  60481-4 0  9990
2 44419  97.5512 239.2818 0022997 111.7408 248.6274 15.12951074 69145
DUCHIFAT-3              
1 44854U 19089C   20278.99574331  .00000548  00000-0  50557-4 0  9995
2 44854  36.9673 170.9463 0008900 236.3664 123.6220 14.99145952 44742
RS-44 & BREEZE-KM R/B   
1 44909U 19096E   20279.12661630 -.00000001  00000-0 -44634-4 0  9994
2 44909  82.5166 282.4381 0216844 330.3693  28.5263 12.79708427 36211
ORBITAL FACTORY 2 (OF-2)
1 45113U 19071C   20278.83393982  .00002519  00000-0  87298-4 0  9991
2 45113  51.6429 195.0214 0013563  91.5637 268.6899 15.33759889 37910
HUSKYSAT-1              
1 45119U 19071J   20278.92811020  .00001988  00000-0  70958-4 0  9999
2 45119  51.6422 194.1505 0012873  88.7586 271.4871 15.33942755 37925
